{
  "type": "FeatureCollection",
  "features": [
    {
      "type": "Feature",
      "properties": {
        "norad_id": 66891,
        "name": "STARLINK-35855",
        "group": "last-30-days",
        "lat": 15.875261832946475,
        "lon": 25.972396815494363,
        "alt_km": 374.87082432756415,
        "timestamp": "2025-12-24T18:55:54.777480+00:00",
        "meta_object_name": "STARLINK-35855",
        "meta_object_id": "2025-283P",
        "meta_epoch": "2025-12-24T06:00:02.000160",
        "meta_mean_motion": 15.66206369,
        "meta_eccentricity": 0.00013688,
        "meta_inclination": 53.1595,
        "meta_ra_of_asc_node": 16.2995,
        "meta_arg_of_pericenter": 90.1958,
        "meta_mean_anomaly": 132.5162,
        "meta_ephemeris_type": 0,
        "meta_classification_type": "U",
        "meta_norad_cat_id": 66891,
        "meta_element_set_no": 999,
        "meta_rev_at_epoch": 427,
        "meta_bstar": -0.021957766,
        "meta_mean_motion_dot": -0.02026317,
        "meta_mean_motion_ddot": 0,
        "tle_line1": "1 66891U 25283P   25358.25002315 -.02026317  00000+0 -21958-1 0  9999",
        "tle_line2": "2 66891  53.1595  16.2995 0001368  90.1958 132.5162 15.66206369  4279"
      },
      "geometry": {
        "type": "Point",
        "coordinates": [
          25.972396815494363,
          15.875261832946475
        ]
      }
    },
    {
      "type": "Feature",
      "properties": {
        "norad_id": 66892,
        "name": "STARLINK-35883",
        "group": "last-30-days",
        "lat": 17.37162132016772,
        "lon": 27.221857007458553,
        "alt_km": 374.6054487251795,
        "timestamp": "2025-12-24T18:55:54.777490+00:00",
        "meta_object_name": "STARLINK-35883",
        "meta_object_id": "2025-283Q",
        "meta_epoch": "2025-12-24T06:00:02.000160",
        "meta_mean_motion": 15.66205667,
        "meta_eccentricity": 0.00013313,
        "meta_inclination": 53.1592,
        "meta_ra_of_asc_node": 16.295,
        "meta_arg_of_pericenter": 89.4503,
        "meta_mean_anomaly": 135.1791,
        "meta_ephemeris_type": 0,
        "meta_classification_type": "U",
        "meta_norad_cat_id": 66892,
        "meta_element_set_no": 999,
        "meta_rev_at_epoch": 421,
        "meta_bstar": -0.021950071,
        "meta_mean_motion_dot": -0.02025614,
        "meta_mean_motion_ddot": 0,
        "tle_line1": "1 66892U 25283Q   25358.25002315 -.02025614  00000+0 -21950-1 0  9991",
        "tle_line2": "2 66892  53.1592  16.2950 0001331  89.4503 135.1791 15.66205667  4216"
      },
      "geometry": {
        "type": "Point",
        "coordinates": [
          27.221857007458553,
          17.37162132016772
        ]
      }
    },
    {
      "type": "Feature",
      "properties": {
        "norad_id": 66893,
        "name": "STARLINK-36033",
        "group": "last-30-days",
        "lat": 18.859395006220556,
        "lon": 28.49156349912529,
        "alt_km": 374.355865720725,
        "timestamp": "2025-12-24T18:55:54.777500+00:00",
        "meta_object_name": "STARLINK-36033",
        "meta_object_id": "2025-283R",
        "meta_epoch": "2025-12-24T06:00:02.000160",
        "meta_mean_motion": 15.66201854,
        "meta_eccentricity": 0.00013337,
        "meta_inclination": 53.1594,
        "meta_ra_of_asc_node": 16.2909,
        "meta_arg_of_pericenter": 90.2114,
        "meta_mean_anomaly": 136.3404,
        "meta_ephemeris_type": 0,
        "meta_classification_type": "U",
        "meta_norad_cat_id": 66893,
        "meta_element_set_no": 999,
        "meta_rev_at_epoch": 427,
        "meta_bstar": -0.021938623,
        "meta_mean_motion_dot": -0.02024413,
        "meta_mean_motion_ddot": 0,
        "tle_line1": "1 66893U 25283R   25358.25002315 -.02024413  00000+0 -21939-1 0  9995",
        "tle_line2": "2 66893  53.1594  16.2909 0001333  90.2114 136.3404 15.66201854  4277"
      },
      "geometry": {
        "type": "Point",
        "coordinates": [
          28.49156349912529,
          18.859395006220556
        ]
      }
    },
    {
      "type": "Feature",
      "properties": {
        "norad_id": 66894,
        "name": "STARLINK-35718",
        "group": "last-30-days",
        "lat": 20.33876733711246,
        "lon": 29.785593738328966,
        "alt_km": 374.07718233549076,
        "timestamp": "2025-12-24T18:55:54.777512+00:00",
        "meta_object_name": "STARLINK-35718",
        "meta_object_id": "2025-283S",
        "meta_epoch": "2025-12-24T06:00:02.000160",
        "meta_mean_motion": 15.6620628,
        "meta_eccentricity": 0.00013495,
        "meta_inclination": 53.1593,
        "meta_ra_of_asc_node": 16.2879,
        "meta_arg_of_pericenter": 90.015,
        "meta_mean_anomaly": 138.4476,
        "meta_ephemeris_type": 0,
        "meta_classification_type": "U",
        "meta_norad_cat_id": 66894,
        "meta_element_set_no": 999,
        "meta_rev_at_epoch": 427,
        "meta_bstar": -0.021958292,
        "meta_mean_motion_dot": -0.02026338,
        "meta_mean_motion_ddot": 0,
        "tle_line1": "1 66894U 25283S   25358.25002315 -.02026338  00000+0 -21958-1 0  9995",
        "tle_line2": "2 66894  53.1593  16.2879 0001349  90.0150 138.4476 15.66206280  4278"
      },
      "geometry": {
        "type": "Point",
        "coordinates": [
          29.785593738328966,
          20.33876733711246
        ]
      }
    },
    {
      "type": "Feature",
      "properties": {
        "norad_id": 66895,
        "name": "STARLINK-35971",
        "group": "last-30-days",
        "lat": 23.268438328468612,
        "lon": 32.44745385213112,
        "alt_km": 373.55336909266225,
        "timestamp": "2025-12-24T18:55:54.777524+00:00",
        "meta_object_name": "STARLINK-35971",
        "meta_object_id": "2025-283T",
        "meta_epoch": "2025-12-24T06:00:02.000160",
        "meta_mean_motion": 15.66197943,
        "meta_eccentricity": 0.0001337,
        "meta_inclination": 53.1598,
        "meta_ra_of_asc_node": 16.2777,
        "meta_arg_of_pericenter": 91.1428,
        "meta_mean_anomaly": 141.1585,
        "meta_ephemeris_type": 0,
        "meta_classification_type": "U",
        "meta_norad_cat_id": 66895,
        "meta_element_set_no": 999,
        "meta_rev_at_epoch": 427,
        "meta_bstar": -0.021845952,
        "meta_mean_motion_dot": -0.0201663,
        "meta_mean_motion_ddot": 0,
        "tle_line1": "1 66895U 25283T   25358.25002315 -.02016630  00000+0 -21846-1 0  9996",
        "tle_line2": "2 66895  53.1598  16.2777 0001337  91.1428 141.1585 15.66197943  4275"
      },
      "geometry": {
        "type": "Point",
        "coordinates": [
          32.44745385213112,
          23.268438328468612
        ]
      }
    },
    {
      "type": "Feature",
      "properties": {
        "norad_id": 66896,
        "name": "STARLINK-35791",
        "group": "last-30-days",
        "lat": 21.809868865627973,
        "lon": 31.10318949012676,
        "alt_km": 373.9141987234225,
        "timestamp": "2025-12-24T18:55:54.777546+00:00",
        "meta_object_name": "STARLINK-35791",
        "meta_object_id": "2025-283U",
        "meta_epoch": "2025-12-24T06:00:02.000160",
        "meta_mean_motion": 15.66205401,
        "meta_eccentricity": 0.00012921,
        "meta_inclination": 53.1597,
        "meta_ra_of_asc_node": 16.2824,
        "meta_arg_of_pericenter": 97.1722,
        "meta_mean_anomaly": 133.2099,
        "meta_ephemeris_type": 0,
        "meta_classification_type": "U",
        "meta_norad_cat_id": 66896,
        "meta_element_set_no": 999,
        "meta_rev_at_epoch": 427,
        "meta_bstar": -0.021951951,
        "meta_mean_motion_dot": -0.02025715,
        "meta_mean_motion_ddot": 0,
        "tle_line1": "1 66896U 25283U   25358.25002315 -.02025715  00000+0 -21952-1 0  9999",
        "tle_line2": "2 66896  53.1597  16.2824 0001292  97.1722 133.2099 15.66205401  4272"
      },
      "geometry": {
        "type": "Point",
        "coordinates": [
          31.10318949012676,
          21.809868865627973
        ]
      }
    },
    {
      "type": "Feature",
      "properties": {
        "norad_id": 66897,
        "name": "STARLINK-36079",
        "group": "last-30-days",
        "lat": 24.71566867140477,
        "lon": 33.8241584263216,
        "alt_km": 373.34470282175425,
        "timestamp": "2025-12-24T18:55:54.777561+00:00",
        "meta_object_name": "STARLINK-36079",
        "meta_object_id": "2025-283V",
        "meta_epoch": "2025-12-24T06:00:02.000160",
        "meta_mean_motion": 15.66203449,
        "meta_eccentricity": 0.00012069,
        "meta_inclination": 53.1595,
        "meta_ra_of_asc_node": 16.275,
        "meta_arg_of_pericenter": 90.3797,
        "meta_mean_anomaly": 143.8375,
        "meta_ephemeris_type": 0,
        "meta_classification_type": "U",
        "meta_norad_cat_id": 66897,
        "meta_element_set_no": 999,
        "meta_rev_at_epoch": 427,
        "meta_bstar": -0.021949525,
        "meta_mean_motion_dot": -0.02025311,
        "meta_mean_motion_ddot": 0,
        "tle_line1": "1 66897U 25283V   25358.25002315 -.02025311  00000+0 -21950-1 0  9990",
        "tle_line2": "2 66897  53.1595  16.2750 0001206  90.3797 143.8375 15.66203449  4275"
      },
      "geometry": {
        "type": "Point",
        "coordinates": [
          33.8241584263216,
          24.71566867140477
        ]
      }
    }
  ]
}